COMMENT,ORIGINATOR,NORAD_CAT_ID,OBJECT_NAME,OBJECT_TYPE,CLASSIFICATION_TYPE,INTLDES,EPOCH,EPOCH_MICROSECONDS,MEAN_MOTION,ECCENTRICITY,INCLINATION,RA_OF_ASC_NODE,ARG_OF_PERICENTER,MEAN_ANOMALY,EPHEMERIS_TYPE,ELEMENT_SET_NO,REV_AT_EPOCH,BSTAR,MEAN_MOTION_DOT,MEAN_MOTION_DDOT,FILE,TLE_LINE0,TLE_LINE1,TLE_LINE2,OBJECT_ID,OBJECT_NUMBER,SEMIMAJOR_AXIS,PERIOD,APOGEE,PERIGEE,DECAYED
"GENERATED VIA SPACETRACK.ORG API","18 SPCS","55100","SPACEBEE-158","PAYLOAD","U","23001CV","2024-05-16 10:26:18","517056","15.45091598","0.0009631","97.4225","203.2221","247.9387","112.0839","0","999","7618","0.0022842","0.00109479","0","4319123","0 SPACEBEE-158","1 55100U 23001CV  24137.43493654  .00109479  00000-0  22842-2 0  9992","2 55100  97.4225 203.2221 0009631 247.9387 112.0839 15.45091598 76186","2023-001CV","55100","6809.246","93.198","437.669","424.553","0"
"GENERATED VIA SPACETRACK.ORG API","18 SPCS","55100","SPACEBEE-158","PAYLOAD","U","23001CV","2024-05-17 03:32:05","907840","15.45263671","0.000984","97.4226","203.9498","245.4646","114.5577","0","999","7629","0.0019041","0.00091581","0","4319504","0 SPACEBEE-158","1 55100U 23001CV  24138.14729060  .00091581  00000-0  19041-2 0  9995","2 55100  97.4226 203.9498 0009840 245.4646 114.5577 15.45263671 76294","2023-001CV","55100","6808.740","93.188","437.305","423.906","0"
"GENERATED VIA SPACETRACK.ORG API","18 SPCS","55100","SPACEBEE-158","PAYLOAD","U","23001CV","2024-05-17 03:32:05","907840","15.45263671","0.000984","97.4226","203.9498","245.4646","114.5577","0","999","7629","0.0019041","0.00091581","0","4320024","0 SPACEBEE-158","1 55100U 23001CV  24138.14729060  .00091581  00000-0  19041-2 0  9995","2 55100  97.4226 203.9498 0009840 245.4646 114.5577 15.45263671 76294","2023-001CV","55100","6808.740","93.188","437.305","423.906","0"
"GENERATED VIA SPACETRACK.ORG API","18 SPCS","55100","SPACEBEE-158","PAYLOAD","U","23001CV","2024-05-17 22:11:01","119264","15.45445","0.0009939","97.4228","204.744","242.7992","117.2245","0","999","7641","0.0022771","0.00110484","0","4320369","0 SPACEBEE-158","1 55100U 23001CV  24138.92431851  .00110484  00000-0  22771-2 0  9997","2 55100  97.4228 204.7440 0009939 242.7992 117.2245 15.45445000 76419","2023-001CV","55100","6808.208","93.177","436.840","423.306","0"
"GENERATED VIA SPACETRACK.ORG API","18 SPCS","55100","SPACEBEE-158","PAYLOAD","U","23001CV","2024-05-18 04:23:57","525216","15.45527186","0.0009944","97.4228","205.0091","242.1603","117.8638","0","999","7645","0.0024874","0.00121199","0","4320632","0 SPACEBEE-158","1 55100U 23001CV  24139.18330469  .00121199  00000-0  24874-2 0  9990","2 55100  97.4228 205.0091 0009944 242.1603 117.8638 15.45527186 76456","2023-001CV","55100","6807.966","93.172","436.601","423.062","0"
"GENERATED VIA SPACETRACK.ORG API","18 SPCS","55100","SPACEBEE-158","PAYLOAD","U","23001CV","2024-05-18 10:36:52","840800","15.45599501","0.0009915","97.4224","205.2742","241.3614","118.6638","0","999","7649","0.0026577","0.00129966","0","4321083","0 SPACEBEE-158","1 55100U 23001CV  24139.44227825  .00129966  00000-0  26577-2 0  9992","2 55100  97.4224 205.2742 0009915 241.3614 118.6638 15.45599501 76491","2023-001CV","55100","6807.754","93.168","436.369","422.869","0"
"GENERATED VIA SPACETRACK.ORG API","18 SPCS","55100","SPACEBEE-158","PAYLOAD","U","23001CV","2024-05-18 16:49:47","204256","15.45664385","0.0010023","97.423","205.5395","240.9843","119.0402","0","999","7653","0.0023332","0.00114114","0","4321432","0 SPACEBEE-158","1 55100U 23001CV  24139.70124079  .00114114  00000-0  23332-2 0  9993","2 55100  97.4230 205.5395 0010023 240.9843 119.0402 15.45664385 76538","2023-001CV","55100","6807.564","93.164","436.252","422.605","0"
"GENERATED VIA SPACETRACK.ORG API","18 SPCS","55100","SPACEBEE-158","PAYLOAD","U","23001CV","2024-05-19 03:42:20","96928","15.45768534","0.0010105","97.423","206.0027","239.123","120.9025","0","999","7660","0.0018627","0.00091146","0","4321597","0 SPACEBEE-158","1 55100U 23001CV  24140.15439927  .00091146  00000-0  18627-2 0  9995","2 55100  97.4230 206.0027 0010105 239.1230 120.9025 15.45768534 76608","2023-001CV","55100","6807.258","93.158","436.002","422.244","0"
"GENERATED VIA SPACETRACK.ORG API","18 SPCS","55100","SPACEBEE-158","PAYLOAD","U","23001CV","2024-05-19 03:42:20","96928","15.45768534","0.0010105","97.423","206.0027","239.123","120.9025","0","999","7660","0.0018627","0.00091146","0","4321746","0 SPACEBEE-158","1 55100U 23001CV  24140.15439927  .00091146  00000-0  18627-2 0  9995","2 55100  97.4230 206.0027 0010105 239.1230 120.9025 15.45768534 76608","2023-001CV","55100","6807.258","93.158","436.002","422.244","0"
"GENERATED VIA SPACETRACK.ORG API","18 SPCS","55100","SPACEBEE-158","PAYLOAD","U","23001CV","2024-05-19 17:41:15","897120","15.45899788","0.0010131","97.423","206.5994","237.9174","122.1092","0","999","7669","0.0022001","0.00108393","0","4321997","0 SPACEBEE-158","1 55100U 23001CV  24140.73698955  .00108393  00000-0  22001-2 0  9991","2 55100  97.4230 206.5994 0010131 237.9174 122.1092 15.45899788 76691","2023-001CV","55100","6806.873","93.150","435.634","421.841","0"
"GENERATED VIA SPACETRACK.ORG API","18 SPCS","55100","SPACEBEE-158","PAYLOAD","U","23001CV","2024-05-20 03:00:30","676320","15.45991113","0.0010199","97.423","206.9965","236.2861","123.7417","0","999","7675","0.00227","0.00112247","0","4322688","0 SPACEBEE-158","1 55100U 23001CV  24141.12535505  .00112247  00000-0  22700-2 0  9995","2 55100  97.4230 206.9965 0010199 236.2861 123.7417 15.45991113 76752","2023-001CV","55100","6806.604","93.144","435.411","421.527","0"
"GENERATED VIA SPACETRACK.ORG API","18 SPCS","55100","SPACEBEE-158","PAYLOAD","U","23001CV","2024-05-21 03:51:41","802336","15.46195912","0.0010343","97.4226","208.0567","233.3082","126.7217","0","999","7691","0.0019914","0.00098991","0","4323208","0 SPACEBEE-158","1 55100U 23001CV  24142.16090049  .00098991  00000-0  19914-2 0  9991","2 55100  97.4226 208.0567 0010343 233.3082 126.7217 15.46195912 76915","2023-001CV","55100","6806.003","93.132","434.908","420.829","0"
"GENERATED VIA SPACETRACK.ORG API","18 SPCS","55100","SPACEBEE-158","PAYLOAD","U","23001CV","2024-05-21 13:10:50","486016","15.46264025","0.0010297","97.4225","208.4549","232.8711","127.1599","0","999","7697","0.0018877","0.0009399","0","4323618","0 SPACEBEE-158","1 55100U 23001CV  24142.54919544  .00093990  00000-0  18877-2 0  9994","2 55100  97.4225 208.4549 0010297 232.8711 127.1599 15.46264025 76975","2023-001CV","55100","6805.804","93.128","434.676","420.661","0"
"GENERATED VIA SPACETRACK.ORG API","18 SPCS","55100","SPACEBEE-158","PAYLOAD","U","23001CV","2024-05-21 17:50:24","239040","15.46300607","0.0010318","97.4223","208.6535","232.3574","127.674","0","999","7700","0.0018148","0.0009043","0","4323884","0 SPACEBEE-158","1 55100U 23001CV  24142.74333610  .00090430  00000-0  18148-2 0  9997","2 55100  97.4223 208.6535 0010318 232.3574 127.6740 15.46300607 77001","2023-001CV","55100","6805.696","93.125","434.583","420.539","0"
"GENERATED VIA SPACETRACK.ORG API","18 SPCS","55100","SPACEBEE-158","PAYLOAD","U","23001CV","2024-05-22 03:09:30","416256","15.46383594","0.0010365","97.4221","209.0509","230.8193","129.2136","0","999","7706","0.0019497","0.00097524","0","4324498","0 SPACEBEE-158","1 55100U 23001CV  24143.13160204  .00097524  00000-0  19497-2 0  9997","2 55100  97.4221 209.0509 0010365 230.8193 129.2136 15.46383594 77066","2023-001CV","55100","6805.453","93.120","434.372","420.264","0"
"GENERATED VIA SPACETRACK.ORG API","18 SPCS","55100","SPACEBEE-158","PAYLOAD","U","23001CV","2024-05-22 03:09:30","416256","15.46383594","0.0010365","97.4221","209.0509","230.8193","129.2136","0","999","7706","0.0019497","0.00097524","0","4324646","0 SPACEBEE-158","1 55100U 23001CV  24143.13160204  .00097524  00000-0  19497-2 0  9997","2 55100  97.4221 209.0509 0010365 230.8193 129.2136 15.46383594 77066","2023-001CV","55100","6805.453","93.120","434.372","420.264","0"
"GENERATED VIA SPACETRACK.ORG API","18 SPCS","55100","SPACEBEE-158","PAYLOAD","U","23001CV","2024-05-23 04:00:19","242432","15.46572232","0.0010543","97.4219","210.1112","227.5161","132.5198","0","999","7722","0.0016554","0.00083182","0","4324975","0 SPACEBEE-158","1 55100U 23001CV  24144.16688938  .00083182  00000-0  16554-2 0  9996","2 55100  97.4219 210.1112 0010543 227.5161 132.5198 15.46572232 77224","2023-001CV","55100","6804.899","93.109","433.939","419.590","0"
"GENERATED VIA SPACETRACK.ORG API","18 SPCS","55100","SPACEBEE-158","PAYLOAD","U","23001CV","2024-05-23 04:00:19","242432","15.46572232","0.0010543","97.4219","210.1112","227.5161","132.5198","0","999","7722","0.0016554","0.00083182","0","4325336","0 SPACEBEE-158","1 55100U 23001CV  24144.16688938  .00083182  00000-0  16554-2 0  9996","2 55100  97.4219 210.1112 0010543 227.5161 132.5198 15.46572232 77224","2023-001CV","55100","6804.899","93.109","433.939","419.590","0"
"GENERATED VIA SPACETRACK.ORG API","18 SPCS","55100","SPACEBEE-158","PAYLOAD","U","23001CV","2024-05-23 17:58:49","371456","15.46676562","0.0010572","97.4214","210.7079","226.4702","133.567","0","999","7731","0.0016634","0.00083894","0","4325574","0 SPACEBEE-158","1 55100U 23001CV  24144.74918254  .00083894  00000-0  16634-2 0  9996","2 55100  97.4214 210.7079 0010572 226.4702 133.5670 15.46676562 77315","2023-001CV","55100","6804.593","93.103","433.652","419.264","0"
"GENERATED VIA SPACETRACK.ORG API","18 SPCS","55100","SPACEBEE-158","PAYLOAD","U","23001CV","2024-05-24 03:17:47","413248","15.46757429","0.0010674","97.4215","211.1051","224.6302","135.4089","0","999","7737","0.0018002","0.0009114","0","4325765","0 SPACEBEE-158","1 55100U 23001CV  24145.13735432  .00091140  00000-0  18002-2 0  9999","2 55100  97.4215 211.1051 0010674 224.6302 135.4089 15.46757429 77373","2023-001CV","55100","6804.356","93.098","433.484","418.958","0"
